CSS (TIANHE)            
1 48274U 21035A   23209.52881578  .00011663  00000+0  14153-3 0  9999
2 48274  41.4742 264.7081 0007700  16.9205 343.1889 15.60441967128295
